DMSP 5D-3 F16 (USA 172) 
1 28054U 03048A   26166.54809699  .00000005  00000+0  26096-4 0  9996
2 28054  98.9891 190.3656 0007687 144.5099 329.7142 14.14483088169257
METEOSAT-9 (MSG-2)      
1 28912U 05049B   26165.95824632  .00000122  00000+0  00000+0 0  9992
2 28912   9.3563  54.1897 0001586 342.1562 257.5139  1.00271050  6977
DMSP 5D-3 F17 (USA 191) 
1 29522U 06050A   26166.54333630  .00000031  00000+0  38331-4 0  9994
2 29522  98.7378 173.1471 0011208  63.7008 296.5315 14.14992976 12190
FENGYUN 3A              
1 32958U 08026A   26166.42620757  .00000047  00000+0  42790-4 0  9993
2 32958  98.6883 107.2923 0009523 128.2457 231.9578 14.19570748935157
GOES 14                 
1 35491U 09033A   26166.51989272 -.00000283  00000+0  00000+0 0  9993
2 35491   1.6860  83.0619 0001716  10.8900 139.8047  1.00111296  6576
DMSP 5D-3 F18 (USA 210) 
1 35951U 09057A   26166.51460647  .00000193  00000+0  12308-3 0  9997
2 35951  98.9037 147.2874 0009873 254.8872 105.1209 14.14895830859358
EWS-G2 (GOES 15)        
1 36411U 10008A   26166.48555089  .00000020  00000+0  00000+0 0  9999
2 36411   1.2732  82.8818 0005388  42.3870  17.0000  1.00275722 59621
COMS 1                  
1 36744U 10032A   26165.90754437  .00000023  00000+0  00000+0 0  9992
2 36744   4.7990  75.3807 0011440  11.6720 225.4123  0.99162575 51067
FENGYUN 3B              
1 37214U 10059A   26166.54467569  .00000348  00000+0  20332-3 0  9996
2 37214  98.9624 212.5522 0021813 188.7145 277.5415 14.14842764807192
SUOMI NPP               
1 37849U 11061A   26166.50790560  .00000057  00000+0  48121-4 0  9994
2 37849  98.7954 107.3954 0001634  10.8295 349.2916 14.19517005758202
METEOSAT-10 (MSG-3)     
1 38552U 12035B   26166.33043115 -.00000004  00000+0  00000+0 0  9998
2 38552   4.6674  61.0286 0001436 327.6157 354.2543  1.00276454 50831
METOP-B                 
1 38771U 12049A   26166.50023307  .00000094  00000+0  62741-4 0  9999
2 38771  98.6505 218.0330 0002334  23.8229 336.3056 14.21432301713026
INSAT-3D                
1 39216U 13038B   26166.49852815 -.00000338  00000+0  00000+0 0  9992
2 39216   1.9219  82.5603 0000551 308.3580 181.8519  1.00269887 47068
FENGYUN 3C              
1 39260U 13052A   26166.55967112  .00000046  00000+0  44380-4 0  9990
2 39260  98.4986 140.5092 0015332  32.1243 328.0863 14.15754637658334
METEOR-M 2              
1 40069U 14037A   26166.52663196 -.00000010  00000+0  14575-4 0  9990
2 40069  98.5105 142.3237 0006836  48.2751 311.9011 14.21461040619084
HIMAWARI-8              
1 40267U 14060A   26166.50078147 -.00000273  00000+0  00000+0 0  9994
2 40267   0.0160 343.8336 0000972 103.6155 137.2801  1.00272119 42749
FENGYUN 2G              
1 40367U 14090A   26165.77976201 -.00000301  00000+0  00000+0 0  9996
2 40367   5.6329  72.8457 0003942 155.9654  54.6513  1.00273198 41979
METEOSAT-11 (MSG-4)     
1 40732U 15034A   26166.26092124  .00000067  00000+0  00000+0 0  9997
2 40732   3.1967  71.1216 0001755  10.4371 285.5308  1.00279763  7199
ELEKTRO-L 2             
1 41105U 15074A   26165.97095833 -.00000118  00000+0  00000+0 0  9991
2 41105   6.6873  70.5494 0000874 244.3322 283.4193  1.00270489 38485
SENTINEL-3A             
1 41335U 16011A   26166.46331062  .00000090  00000+0  55366-4 0  9998
2 41335  98.6249 233.8716 0001395 102.2493 257.8844 14.26739518537813
INSAT-3DR               
1 41752U 16054A   26166.48754425 -.00000074  00000+0  00000+0 0  9995
2 41752   0.1021  86.5724 0010642 187.2831 239.4059  1.00270796 35800
HIMAWARI-9              
1 41836U 16064A   26166.50078147 -.00000272  00000+0  00000+0 0  9992
2 41836   0.0517 143.8920 0000823 356.8486  84.0898  1.00269576 35198
GOES 16                 
1 41866U 16071A   26166.43565388 -.00000088  00000+0  00000+0 0  9998
2 41866   0.3367  85.5294 0000202 301.4500 288.8852  1.00270900 35082
FENGYUN 4A              
1 41882U 16077A   26166.40044745 -.00000355  00000+0  00000+0 0  9995
2 41882   2.3171  80.2990 0008700 153.1806 298.1396  1.00269450 34918
CYGFM05                 
1 41884U 16078A   26166.51201381  .00019799  00000+0  26902-3 0  9995
2 41884  34.9572 271.6826 0006837 133.8260 226.3030 15.56610231528490
CYGFM04                 
1 41885U 16078B   26166.48781870  .00024644  00000+0  27840-3 0  9995
2 41885  34.9318 239.6188 0006463 179.4762 180.5971 15.61435209528730
CYGFM02                 
1 41886U 16078C   26166.49175110  .00028754  00000+0  28864-3 0  9994
2 41886  34.9398 234.1777 0007497 180.7089 179.3628 15.64411880528904
CYGFM01                 
1 41887U 16078D   26166.50145935  .00020823  00000+0  27582-3 0  9994
2 41887  34.9401 272.8236 0006628 127.5289 232.6038 15.57284855528444
CYGFM08                 
1 41888U 16078E   26166.52782416  .00023283  00000+0  27848-3 0  9996
2 41888  34.9428 252.2715 0008138 161.1342 198.9686 15.59947079528719
CYGFM07                 
1 41890U 16078G   26166.48706683  .00022828  00000+0  27217-3 0  9990
2 41890  34.9439 240.8864 0006875 178.1649 181.9102 15.60044996528731
CYGFM03                 
1 41891U 16078H   26166.52205786  .00023531  00000+0  28061-3 0  9994
2 41891  34.9396 242.5913 0006274 166.2351 193.8546 15.60039625528714
